QIANFAN-25              
1 61558U 24185G   25286.36627929  .00000705  00000+0  42337-3 0  9995
2 61558  88.9755  85.0174 0010209 127.7879 232.4229 14.05821451 61021
QIANFAN-26              
1 61559U 24185H   25286.32500416  .00000381  00000+0  36847-3 0  9992
2 61559  88.9754  86.2676 0005615 174.9950 185.1274 13.77760884 60359
QIANFAN-27              
1 61560U 24185J   25286.31511065  .00000857  00000+0  34494-3 0  9999
2 61560  88.9753  84.0239 0009853 120.6499 239.5668 14.27215370 61549
QIANFAN-28              
1 61561U 24185K   25286.32537784  .00001279  00000+0  51151-3 0  9995
2 61561  88.9769  84.0211 0008959 120.0596 240.1488 14.27841798 61553
QIANFAN-29              
1 61562U 24185L   25286.37724795  .00000252  00000+0  37156-3 0  9990
2 61562  88.9730  87.5449 0008970 217.9422 142.1098 13.50979843 59643
QIANFAN-30              
1 61563U 24185M   25286.38054645  .00000239  00000+0  35688-3 0  9995
2 61563  88.9750  87.0466 0006897 197.5153 162.5761 13.49957303 59929
QIANFAN-31              
1 61564U 24185N   25286.33477358  .00000288  00000+0  38199-3 0  9995
2 61564  88.9736  86.9490 0006617 193.1091 166.9893 13.57930419 59968
QIANFAN-32              
1 61565U 24185P   25286.30831426  .00000235  00000+0  34653-3 0  9996
2 61565  88.9794  87.1700 0007964 230.0248 130.0204 13.50708771 59887
